[
    {
        "Altitude(m)": 607911.0257708802,
        "Argument of Periapsis(deg)": 0.0,
        "Eccentricity": 0.0,
        "Inclination(deg)": 60.0,
        "Latitude(deg)": -14.293038572066658,
        "Longitude(deg)": -86.5573493758169,
        "Mean Anomaly(deg)": -163.6364,
        "RAAN(deg)": 184.99999999999997,
        "Satellite Name": "Test1 826",
        "Satellite Number": 826,
        "Semi-Major Axis(m)": 6980739.136638005,
        "Time(s)": 0
    },
    {
        "Altitude(m)": 608060.259922802,
        "Argument of Periapsis(deg)": 0.00010418945913296404,
        "Eccentricity": 0.0,
        "Inclination(deg)": 60.0,
        "Latitude(deg)": -14.826699905468631,
        "Longitude(deg)": -86.2687396902729,
        "Mean Anomaly(deg)": -163.01629385453816,
        "RAAN(deg)": 184.99957995086024,
        "Satellite Name": "Test1 826",
        "Satellite Number": 826,
        "Semi-Major Axis(m)": 6980739.136638005,
        "Time(s)": 10
    }
]